$$SOE
2459580.500000000, A.D. 2022-Jan-01 00:00:00.0000, 4.203328572204465E+08, 1.945895912326988E+08, -6.580881644901949E+07,
2459587.500000000, A.D. 2022-Jan-08 00:00:00.0000, 4.162695078519987E+08, 2.037184121416743E+08, -6.685475124171960E+07,
2459594.500000000, A.D. 2022-Jan-15 00:00:00.0000, 4.120093343195199E+08, 2.127507876355588E+08, -6.786905833904272E+07,
2459601.500000000, A.D. 2022-Jan-22 00:00:00.0000, 4.075548465221115E+08, 2.216827023702729E+08, -6.885133964814647E+07,
2459608.500000000, A.D. 2022-Jan-29 00:00:00.0000, 4.029086264755757E+08, 2.305102069512592E+08, -6.980121282358143E+07,
2459615.500000000, A.D. 2022-Feb-05 00:00:00.0000, 3.980733244105139E+08, 2.392294180594050E+08, -7.071831109499872E+07,
2459622.500000000, A.D. 2022-Feb-12 00:00:00.0000, 3.930516570631946E+08, 2.478365174681344E+08, -7.160228337566286E+07,
2459629.500000000, A.D. 2022-Feb-19 00:00:00.0000, 3.878464068337222E+08, 2.563277523213656E+08, -7.245279433677036E+07,
2459636.500000000, A.D. 2022-Feb-26 00:00:00.0000, 3.824604204998701E+08, 2.646994359512608E+08, -7.326952438664183E+07,
2459643.500000000, A.D. 2022-Mar-05 00:00:00.0000, 3.768966076462951E+08, 2.729479486209134E+08, -7.405216962034449E+07,
2459650.500000000, A.D. 2022-Mar-12 00:00:00.0000, 3.711579390314296E+08, 2.810697381281337E+08, -7.480044176605114E+07,
2459657.500000000, A.D. 2022-Mar-19 00:00:00.0000, 3.652474449634402E+08, 2.890613203002112E+08, -7.551406813294157E+07,
2459664.500000000, A.D. 2022-Mar-26 00:00:00.0000, 3.591682137078872E+08, 2.969192793755966E+08, -7.619279156373605E+07,
2459671.500000000, A.D. 2022-Apr-02 00:00:00.0000, 3.529233899951065E+08, 3.046402682186744E+08, -7.683637040318996E+07,
2459678.500000000, A.D. 2022-Apr-09 00:00:00.0000, 3.465161738998391E+08, 3.122210083745539E+08, -7.744457850771600E+07,
2459685.500000000, A.D. 2022-Apr-16 00:00:00.0000, 3.399498204509088E+08, 3.196582906193978E+08, -7.801720527603848E+07,
2459692.500000000, A.D. 2022-Apr-23 00:00:00.0000, 3.332276387012875E+08, 3.269489770907338E+08, -7.855405549587989E+07,
2459699.500000000, A.D. 2022-Apr-30 00:00:00.0000, 3.263529883864774E+08, 3.340900027545047E+08, -7.905494901838353E+07,
2459706.500000000, A.D. 2022-May-07 00:00:00.0000, 3.193292772351227E+08, 3.410783742390936E+08, -7.951972070335743E+07,
2459713.500000000, A.D. 2022-May-14 00:00:00.0000, 3.121599603225473E+08, 3.479111690754583E+08, -7.994822051514623E+07,
2459720.500000000, A.D. 2022-May-21 00:00:00.0000, 3.048485394351704E+08, 3.545855361024333E+08, -8.034031352069332E+07,
2459727.500000000, A.D. 2022-May-28 00:00:00.0000, 2.973985619661329E+08, 3.610986960798782E+08, -8.069587982422408E+07,
2459734.500000000, A.D. 2022-Jun-04 00:00:00.0000, 2.898136196188872E+08, 3.674479421985651E+08, -8.101481448970845E+07,
2459741.500000000, A.D. 2022-Jun-11 00:00:00.0000, 2.820973470631647E+08, 3.736306404906554E+08, -8.129702746438502E+07,
2459748.500000000, A.D. 2022-Jun-18 00:00:00.0000, 2.742534205817387E+08, 3.796442301557233E+08, -8.154244350599553E+07,
2459755.500000000, A.D. 2022-Jun-25 00:00:00.0000, 2.662855567371671E+08, 3.854862237708749E+08, -8.175100211932482E+07,
2459762.500000000, A.D. 2022-Jul-02 00:00:00.0000, 2.581975111924255E+08, 3.911542073209983E+08, -8.192265751992966E+07,
2459769.500000000, A.D. 2022-Jul-09 00:00:00.0000, 2.499930780759794E+08, 3.966458402278196E+08, -8.205737864669114E+07,
2459776.500000000, A.D. 2022-Jul-16 00:00:00.0000, 2.416760898368552E+08, 4.019588564611130E+08, -8.215514912982275E+07,
2459783.500000000, A.D. 2022-Jul-23 00:00:00.0000, 2.332504153904722E+08, 4.070910668079179E+08, -8.221596700551365E+07,
2459790.500000000, A.D. 2022-Jul-30 00:00:00.0000, 2.247199566362156E+08, 4.120403589455137E+08, -8.223984445780002E+07,
2459797.500000000, A.D. 2022-Aug-06 00:00:00.0000, 2.160886469444138E+08, 4.168046959687214E+08, -8.222680786481300E+07,
2459804.500000000, A.D. 2022-Aug-13 00:00:00.0000, 2.073604507888747E+08, 4.213821161267781E+08, -8.217689784867091E+07,
2459811.500000000, A.D. 2022-Aug-20 00:00:00.0000, 1.985393629538760E+08, 4.257707332674122E+08, -8.209016922586673E+07,
2459818.500000000, A.D. 2022-Aug-27 00:00:00.0000, 1.896294073828843E+08, 4.299687372637403E+08, -8.196669092396066E+07,
2459825.500000000, A.D. 2022-Sep-03 00:00:00.0000, 1.806346359170271E+08, 4.339743943153829E+08, -8.180654589675391E+07,
2459832.500000000, A.D. 2022-Sep-10 00:00:00.0000, 1.715591270136326E+08, 4.377860471487934E+08, -8.160983104450768E+07,
2459839.500000000, A.D. 2022-Sep-17 00:00:00.0000, 1.624069844740752E+08, 4.414021151155025E+08, -8.137665714210917E+07,
2459846.500000000, A.D. 2022-Sep-24 00:00:00.0000, 1.531823362406982E+08, 4.448210941375880E+08, -8.110714878484708E+07,
2459853.500000000, A.D. 2022-Oct-01 00:00:00.0000, 1.438893335017766E+08, 4.480415564784383E+08, -8.080144437565579E+07,
2459860.500000000, A.D. 2022-Oct-08 00:00:00.0000, 1.345321505109157E+08, 4.510621508617727E+08, -8.045969614881481E+07,
2459867.500000000, A.D. 2022-Oct-15 00:00:00.0000, 1.251149841889052E+08, 4.538816041386188E+08, -8.008207004706725E+07,
2459874.500000000, A.D. 2022-Oct-22 00:00:00.0000, 1.156420513254581E+08, 4.564987228167576E+08, -7.966874538930850E+07,
2459881.500000000, A.D. 2022-Oct-29 00:00:00.0000, 1.061175858757694E+08, 4.589123918593426E+08, -7.921991476966983E+07,
2459888.500000000, A.D. 2022-Nov-05 00:00:00.0000, 9.654583845055057E+07, 4.611215734966826E+08, -7.873578415760374E+07,
2459895.500000000, A.D. 2022-Nov-12 00:00:00.0000, 8.693107603508276E+07, 4.631253073188109E+08, -7.821657291569051E+07,
2459902.500000000, A.D. 2022-Nov-19 00:00:00.0000, 7.727758121707775E+07, 4.649227106941786E+08, -7.766251374705319E+07,
2459909.500000000, A.D. 2022-Nov-26 00:00:00.0000, 6.758965118455619E+07, 4.665129791171674E+08, -7.707385262887961E+07,
2459916.500000000, A.D. 2022-Dec-03 00:00:00.0000, 5.787159665900052E+07, 4.678953864729977E+08, -7.645084874820454E+07,
2459923.500000000, A.D. 2022-Dec-10 00:00:00.0000, 4.812774080859894E+07, 4.690692852385839E+08, -7.579377444246311E+07,
2459930.500000000, A.D. 2022-Dec-17 00:00:00.0000, 3.836241816545816E+07, 4.700341065939277E+08, -7.510291514885210E+07,
2459937.500000000, A.D. 2022-Dec-24 00:00:00.0000, 2.857997365503414E+07, 4.707893603776652E+08, -7.437856937755927E+07,
2459944.500000000, A.D. 2022-Dec-31 00:00:00.0000, 1.878476209388167E+07, 4.713346349939702E+08, -7.362104873258319E+07,
2459951.500000000, A.D. 2023-Jan-07 00:00:00.0000, 8.981148276864294E+06, 4.716695982337664E+08, -7.283067791279112E+07,
2459958.500000000, A.D. 2023-Jan-14 00:00:00.0000, -8.264943137344315E+05, 4.717939995076010E+08, -7.200779447238567E+07,
2459965.500000000, A.D. 2023-Jan-21 00:00:00.0000, -1.063378682275506E+07, 4.717076703157953E+08, -7.115274854028723E+07,
2459972.500000000, A.D. 2023-Jan-28 00:00:00.0000, -2.043634669529694E+07, 4.714105227603040E+08, -7.026590285052630E+07,
2459979.500000000, A.D. 2023-Feb-04 00:00:00.0000, -3.022978791810364E+07, 4.709025491286855E+08, -6.934763281787018E+07,
2459986.500000000, A.D. 2023-Feb-11 00:00:00.0000, -4.000972162413151E+07, 4.701838223571044E+08, -6.839832650996417E+07,
2459993.500000000, A.D. 2023-Feb-18 00:00:00.0000, -4.977175712410667E+07, 4.692544965486482E+08, -6.741838457709043E+07,
2460000.500000000, A.D. 2023-Feb-25 00:00:00.0000, -5.951150310316762E+07, 4.681148073850403E+08, -6.640822017656721E+07,
2460007.500000000, A.D. 2023-Mar-04 00:00:00.0000, -6.922456888118462E+07, 4.667650724506853E+08, -6.536825889939195E+07,
2460014.500000000, A.D. 2023-Mar-11 00:00:00.0000, -7.890656570871697E+07, 4.652056914696901E+08, -6.429893870146044E+07,
2460021.500000000, A.D. 2023-Mar-18 00:00:00.0000, -8.855310805184555E+07, 4.634371464063177E+08, -6.320070984739520E+07,
2460028.500000000, A.D. 2023-Mar-25 00:00:00.0000, -9.815981466262746E+07, 4.614600013811089E+08, -6.207403488898957E+07,
2460035.500000000, A.D. 2023-Apr-01 00:00:00.0000, -1.077223090108414E+08, 4.592749027949394E+08, -6.091938868438624E+07,
2460042.500000000, A.D. 2023-Apr-08 00:00:00.0000, -1.172362196930415E+08, 4.568825808849595E+08, -5.973725830084310E+07,
2460049.500000000, A.D. 2023-Apr-15 00:00:00.0000, -1.266971831561262E+08, 4.542838516048805E+08, -5.852814267652380E+07,
2460056.500000000, A.D. 2023-Apr-22 00:00:00.0000, -1.361008469272317E+08, 4.514796157741334E+08, -5.729255245549174E+07,
2460063.500000000, A.D. 2023-Apr-29 00:00:00.0000, -1.454428706188075E+08, 4.484708577477711E+08, -5.603101006239721E+07,
2460070.500000000, A.D. 2023-May-06 00:00:00.0000, -1.547189264714084E+08, 4.452586453909608E+08, -5.474404971080388E+07,
2460077.500000000, A.D. 2023-May-13 00:00:00.0000, -1.639247004109413E+08, 4.418441304657014E+08, -5.343221732905877E+07,
2460084.500000000, A.D. 2023-May-20 00:00:00.0000, -1.730558933861445E+08, 4.382285489382399E+08, -5.209607046534193E+07,
2460091.500000000, A.D. 2023-May-27 00:00:00.0000, -1.821082227930126E+08, 4.344132211768439E+08, -5.073617819199821E+07,
2460098.500000000, A.D. 2023-Jun-03 00:00:00.0000, -1.910774239289498E+08, 4.303995520647368E+08, -4.935312101224199E+07,
2460105.500000000, A.D. 2023-Jun-10 00:00:00.0000, -1.999592514533765E+08, 4.261890310130656E+08, -4.794749077246083E+07,
2460112.500000000, A.D. 2023-Jun-17 00:00:00.0000, -2.087494807663585E+08, 4.217832318123391E+08, -4.651989059310995E+07,
2460119.500000000, A.D. 2023-Jun-24 00:00:00.0000, -2.174439089859848E+08, 4.171838123764035E+08, -4.507093484290050E+07,
2460126.500000000, A.D. 2023-Jul-01 00:00:00.0000, -2.260383552724224E+08, 4.123925152056713E+08, -4.360124911177298E+07,
2460133.500000000, A.D. 2023-Jul-08 00:00:00.0000, -2.345286621739629E+08, 4.074111693913105E+08, -4.211146996212490E+07,
2460140.500000000, A.D. 2023-Jul-15 00:00:00.0000, -2.429106992714890E+08, 4.022416913302451E+08, -4.060224457246311E+07,
2460147.500000000, A.D. 2023-Jul-22 00:00:00.0000, -2.511803655989968E+08, 3.968860831131752E+08, -3.907423068020605E+07,
$$EOE